OBJECT_NAME,OBJECT_ID,EPOCH,MEAN_MOTION,ECCENTRICITY,INCLINATION,RA_OF_ASC_NODE,ARG_OF_PERICENTER,MEAN_ANOMALY,EPHEMERIS_TYPE,CLASSIFICATION_TYPE,NORAD_CAT_ID,ELEMENT_SET_NO,REV_AT_EPOCH,BSTAR,MEAN_MOTION_DOT,MEAN_MOTION_DDOT
SAUDISAT 1C (SO-50),2002-058C,2026-07-18T18:43:46.801920,14.83102312,.0074418,64.5520,31.2314,256.6189,102.6613,0,U,27607,999,26914,.62802E-4,.379E-5,0
SAUDISAT 2,2004-025F,2026-07-18T19:58:00.556032,14.56699343,.0024295,98.5522,200.6338,196.7944,163.2451,0,U,28371,999,17035,.31034E-4,.89E-6,0
SAUDISAT 3,2007-012B,2026-07-18T19:28:36.842592,14.71441294,.0015767,98.1469,150.2358,123.9606,236.3101,0,U,31118,999,3239,.22514E-4,.89E-6,0
PISAT,2016-059B,2026-07-18T17:58:41.513376,14.69032977,.0030538,97.8193,198.8480,103.9796,256.4809,0,U,41784,999,52437,.75265E-4,.397E-5,0
FLYING LAPTOP,2017-042G,2026-07-18T20:17:57.324768,15.01328064,.0019537,97.4827,354.1910,20.8806,339.3212,0,U,42831,999,49120,.17183E-3,.2162E-4,0
SALSAT,2020-068K,2026-07-18T00:21:03.770208,15.30195257,.00094957,97.8861,203.9671,182.8082,177.3106,0,U,46495,999,32007,.14176866E-3,.4061E-4,0
